NORAD_CAT_ID,OBJECT_NAME,OBJECT_TYPE,EPOCH,MEAN_MOTION,ECCENTRICITY,INCLINATION,RA_OF_ASC_NODE,ARG_OF_PERICENTER,MEAN_ANOMALY,BSTAR,MEAN_MOTION_DOT,MEAN_MOTION_DDOT,TLE_LINE0,TLE_LINE1,TLE_LINE2,SEMIMAJOR_AXIS,PERIOD,APOGEE,PERIGEE,DECAYED
52480.0,STARLINK-3839,PAYLOAD,2023-01-30 14:21:21,15.08855102,7.21e-05,53.2172,110.2627,100.4401,259.6672,-2.8527e-05,-7.42e-06,0.0,0 STARLINK-3839,1 52480U 22049AF  23030.59817069 -.00000742  00000-0 -28527-4 0  9992,2 52480  53.2172 110.2627 0000721 100.4401 259.6672 15.08855102 41209,6917.834,95.437,540.198,539.2,0.0
52480.0,STARLINK-3839,PAYLOAD,2023-01-30 22:18:17,15.08850513,8.65e-05,53.2179,108.777,91.4591,268.6501,-8.093e-05,-1.576e-05,0.0,0 STARLINK-3839,1 52480U 22049AF  23030.92937400 -.00001576  00000-0 -80930-4 0  9993,2 52480  53.2179 108.7770 0000865  91.4591 268.6501 15.08850513 41252,6917.848,95.437,540.312,539.115,0.0
52480.0,STARLINK-3839,PAYLOAD,2023-01-31 12:36:46,15.08836483,6.54e-05,53.2165,106.1009,91.6727,268.434,0.00016576,2.351e-05,0.0,0 STARLINK-3839,1 52480U 22049AF  23031.52554094  .00002351  00000-0  16576-3 0  9998,2 52480  53.2165 106.1009 0000654  91.6727 268.4340 15.08836483 41342,6917.891,95.438,540.209,539.304,0.0
52480.0,STARLINK-3839,PAYLOAD,2023-01-31 22:09:05,15.08833974,7.39e-05,53.2175,104.3154,79.2872,280.8203,0.00014377,2.001e-05,0.0,0 STARLINK-3839,1 52480U 22049AF  23031.92298469  .00002001  00000-0  14377-3 0  9992,2 52480  53.2175 104.3154 0000739  79.2872 280.8203 15.08833974 41248,6917.899,95.438,540.275,539.253,0.0
52480.0,STARLINK-3839,PAYLOAD,2023-02-01 10:52:10,15.08848402,9.02e-05,53.2175,101.939,65.3031,294.8055,2.114e-05,4.9e-07,0.0,0 STARLINK-3839,1 52480U 22049AF  23032.45289894  .00000049  00000-0  21140-4 0  9990,2 52480  53.2175 101.9390 0000902  65.3031 294.8055 15.08848402 41329,6917.855,95.437,540.344,539.096,0.0
52480.0,STARLINK-3839,PAYLOAD,2023-02-01 21:59:52,15.08844287,8.66e-05,53.2169,99.8572,61.9882,298.1198,5.2287e-05,5.45e-06,0.0,0 STARLINK-3839,1 52480U 22049AF  23032.91657875  .00000545  00000-0  52287-4 0  9996,2 52480  53.2169  99.8572 0000866  61.9882 298.1198 15.08844287 41551,6917.867,95.437,540.331,539.133,0.0
52480.0,STARLINK-3839,PAYLOAD,2023-02-02 10:42:58,15.08838342,0.0001146,53.2179,97.4795,69.1453,290.9662,1.1309e-05,-1.08e-06,0.0,0 STARLINK-3839,1 52480U 22049AF  23033.44650595 -.00000108  00000-0  11309-4 0  9993,2 52480  53.2179  97.4795 0001146  69.1453 290.9662 15.08838342 41471,6917.885,95.438,540.543,538.958,0.0
52480.0,STARLINK-3839,PAYLOAD,2023-02-03 08:58:22,15.08832525,8.67e-05,53.2169,93.3097,110.4627,249.6458,7.3742e-05,8.86e-06,0.0,0 STARLINK-3839,1 52480U 22049AF  23034.37386607  .00000886  00000-0  73742-4 0  9997,2 52480  53.2169  93.3097 0000867 110.4627 249.6458 15.08832525 41776,6917.903,95.438,540.368,539.168,0.0
52480.0,STARLINK-3839,PAYLOAD,2023-02-03 15:19:53,15.08845355,9.45e-05,53.216,92.1233,91.5307,268.5794,6.8121e-05,7.97e-06,0.0,0 STARLINK-3839,1 52480U 22049AF  23034.63881863  .00000797  00000-0  68121-4 0  9996,2 52480  53.2160  92.1233 0000945  91.5307 268.5794 15.08845355 41810,6917.864,95.437,540.383,539.075,0.0
52480.0,STARLINK-3839,PAYLOAD,2023-02-04 07:13:46,15.08836226,9.61e-05,53.2159,89.1515,86.6077,273.5025,7.7919e-05,9.52e-06,0.0,0 STARLINK-3839,1 52480U 22049AF  23035.30122691  .00000952  00000-0  77919-4 0  9996,2 52480  53.2159  89.1515 0000961  86.6077 273.5025 15.08836226 41915,6917.892,95.438,540.422,539.092,0.0
52480.0,STARLINK-3839,PAYLOAD,2023-02-04 13:35:17,15.08845881,0.0001196,53.216,87.9572,125.0344,235.076,9.6171e-05,1.243e-05,0.0,0 STARLINK-3839,1 52480U 22049AF  23035.56617874  .00001243  00000-0  96171-4 0  9991,2 52480  53.2160  87.9572 0001196 125.0344 235.0760 15.08845881 41952,6917.862,95.437,540.555,538.9,0.0
52480.0,STARLINK-3839,PAYLOAD,2023-02-04 19:56:50,15.08837995,7.62e-05,53.217,86.776,233.8957,126.1965,-9.4013e-05,-1.783e-05,0.0,0 STARLINK-3839,1 52480U 22049AF  23035.83113824 -.00001783  00000-0 -94013-4 0  9991,2 52480  53.2170  86.7760 0000762 233.8957 126.1965 15.08837995 41993,6917.887,95.438,540.279,539.224,0.0
52480.0,STARLINK-3839,PAYLOAD,2023-02-05 13:26:05,15.08838685,0.0001223,53.2171,83.5005,80.6441,279.469,6.7903e-06,-1.8e-06,0.0,0 STARLINK-3839,1 52480U 22049AF  23036.55979156 -.00000180  00000-0  67903-5 0  9997,2 52480  53.2171  83.5005 0001223  80.6441 279.4690 15.08838685 41949,6917.884,95.438,540.595,538.903,0.0
52480.0,STARLINK-3839,PAYLOAD,2023-02-05 19:47:38,15.08837533,0.000131,53.2172,82.3105,81.2559,278.8582,5.1499e-06,-2.06e-06,0.0,0 STARLINK-3839,1 52480U 22049AF  23036.82475324 -.00000206  00000-0  51499-5 0  9997,2 52480  53.2172  82.3105 0001310  81.2559 278.8582 15.08837533 41980,6917.888,95.438,540.659,538.847,0.0
52480.0,STARLINK-3839,PAYLOAD,2023-02-06 08:30:43,15.08849131,0.0001332,53.2156,79.9324,100.7247,259.3895,0.00015461,2.174e-05,0.0,0 STARLINK-3839,1 52480U 22049AF  23037.35466439  .00002174  00000-0  15461-3 0  9995,2 52480  53.2156  79.9324 0001332 100.7247 259.3895 15.08849131 42228,6917.852,95.437,540.639,538.796,0.0
52480.0,STARLINK-3839,PAYLOAD,2023-02-06 11:41:29,15.08854133,0.0001309,53.2157,79.3375,101.9666,258.1473,0.00024698,3.646e-05,0.0,0 STARLINK-3839,1 52480U 22049AF  23037.48714175  .00003646  00000-0  24698-3 0  9999,2 52480  53.2157  79.3375 0001309 101.9666 258.1473 15.08854133 42082,6917.837,95.437,540.608,538.797,0.0
52480.0,STARLINK-3839,PAYLOAD,2023-02-06 14:52:15,15.08861152,0.0001246,53.2153,78.7427,95.6186,264.4948,0.00050117,7.702e-05,0.0,0 STARLINK-3839,1 52480U 22049AF  23037.61962049  .00007702  00000-0  50117-3 0  9991,2 52480  53.2153  78.7427 0001246  95.6186 264.4948 15.08861152 42104,6917.816,95.436,540.543,538.819,0.0
52480.0,STARLINK-3839,PAYLOAD,2023-02-07 11:32:15,15.08871823,0.0001311,53.2146,74.877,101.2033,258.9106,0.0010877,0.0001708,0.0,0 STARLINK-3839,1 52480U 22049AF  23038.48073778  .00017080  00000-0  10877-2 0  9997,2 52480  53.2146  74.8770 0001311 101.2033 258.9106 15.08871823 42393,6917.783,95.436,540.555,538.741,0.0
52480.0,STARLINK-3839,PAYLOAD,2023-02-08 08:12:17,15.0884447,0.0001451,53.2144,71.0105,97.5163,262.5994,0.0010127,0.00015868,0.0,0 STARLINK-3839,1 52480U 22049AF  23039.34186378  .00015868  00000-0  10127-2 0  9994,2 52480  53.2144  71.0105 0001451  97.5163 262.5994 15.08844470 42527,6917.867,95.437,540.736,538.728,0.0
52480.0,STARLINK-3839,PAYLOAD,2023-02-08 12:58:26,15.08860536,0.0001299,53.2145,70.1182,92.0441,268.07,0.0011569,0.00018182,0.0,0 STARLINK-3839,1 52480U 22049AF  23039.54058104  .00018182  00000-0  11569-2 0  9994,2 52480  53.2145  70.1182 0001299  92.0441 268.0700 15.08860536 42394,6917.818,95.436,540.581,538.784,0.0
52480.0,STARLINK-3839,PAYLOAD,2023-02-09 06:27:41,15.08841392,0.0001442,53.2145,66.8474,96.8615,263.2541,0.0012624,0.00019861,0.0,0 STARLINK-3839,1 52480U 22049AF  23040.26922937  .00019861  00000-0  12624-2 0  9997,2 52480  53.2145  66.8474 0001442  96.8615 263.2541 15.08841392 42664,6917.876,95.437,540.739,538.744,0.0
52480.0,STARLINK-3839,PAYLOAD,2023-02-09 08:03:04,15.08845248,0.0001504,53.2147,66.5496,102.5387,257.5773,0.0013151,0.00020707,0.0,0 STARLINK-3839,1 52480U 22049AF  23040.33546875  .00020707  00000-0  13151-2 0  9995,2 52480  53.2147  66.5496 0001504 102.5387 257.5773 15.08845248 42518,6917.864,95.437,540.77,538.689,0.0
52480.0,STARLINK-3839,PAYLOAD,2023-02-09 19:10:46,15.08838551,0.0001541,53.2155,64.4678,111.2993,248.8163,0.00089856,0.00014041,0.0,0 STARLINK-3839,1 52480U 22049AF  23040.79915083  .00014041  00000-0  89856-3 0  9996,2 52480  53.2155  64.4678 0001541 111.2993 248.8163 15.08838551 42747,6917.885,95.438,540.816,538.684,0.0
52480.0,STARLINK-3839,PAYLOAD,2023-02-10 12:40:01,15.08859518,0.0001665,53.2152,61.1965,118.9247,241.1912,0.0020027,0.00031746,0.0,0 STARLINK-3839,1 52480U 22049AF  23041.52779114  .00031746  00000-0  20027-2 0  9996,2 52480  53.2152  61.1965 0001665 118.9247 241.1912 15.08859518 42698,6917.821,95.436,540.838,538.534,0.0
52480.0,STARLINK-3839,PAYLOAD,2023-02-11 12:30:47,15.08870776,0.0002013,53.2161,56.7329,126.3239,233.7939,0.001594,0.00025193,0.0,0 STARLINK-3839,1 52480U 22049AF  23042.52138621  .00025193  00000-0  15940-2 0  9996,2 52480  53.2161  56.7329 0002013 126.3239 233.7939 15.08870776 43005,6917.786,95.436,541.044,538.259,0.0
52480.0,STARLINK-3839,PAYLOAD,2023-02-12 07:35:26,15.08849892,0.0001679,53.2159,53.1697,100.2481,259.8701,0.0018564,0.00029388,0.0,0 STARLINK-3839,1 52480U 22049AF  23043.31627425  .00029388  00000-0  18564-2 0  9994,2 52480  53.2159  53.1697 0001679 100.2481 259.8701 15.08849892 43122,6917.85,95.437,540.877,538.554,0.0
52480.0,STARLINK-3839,PAYLOAD,2023-02-12 12:21:35,15.08861409,0.0001358,53.216,52.2762,93.1888,266.926,0.0020017,0.00031732,0.0,0 STARLINK-3839,1 52480U 22049AF  23043.51499218  .00031732  00000-0  20017-2 0  9995,2 52480  53.2160  52.2762 0001358  93.1888 266.9260 15.08861409 42993,6917.815,95.436,540.619,538.741,0.0
52480.0,STARLINK-3839,PAYLOAD,2023-02-12 17:07:45,15.08820713,0.0003155,53.2168,51.3792,89.2665,270.8689,0.0006264,9.69e-05,0.0,0 STARLINK-3839,1 52480U 22049AF  23043.71372220  .00009690  00000-0  62640-3 0  9997,2 52480  53.2168  51.3792 0003155  89.2665 270.8689 15.08820713 43184,6917.939,95.439,541.987,537.622,0.0
52480.0,STARLINK-3839,PAYLOAD,2023-02-13 10:36:59,15.08863914,0.0001303,53.2172,48.1127,106.3806,253.7329,0.0022667,0.00035995,0.0,0 STARLINK-3839,1 52480U 22049AF  23044.44235529  .00035995  00000-0  22667-2 0  9999,2 52480  53.2172  48.1127 0001303 106.3806 253.7329 15.08863914 43299,6917.807,95.436,540.574,538.771,0.0
52480.0,STARLINK-3839,PAYLOAD,2023-02-13 23:20:04,15.08854099,0.0002073,53.2172,45.7357,87.1518,272.9711,0.0018715,0.00029634,0.0,0 STARLINK-3839,1 52480U 22049AF  23044.97227892  .00029634  00000-0  18715-2 0  9993,2 52480  53.2172  45.7357 0002073  87.1518 272.9711 15.08854099 43379,6917.837,95.437,541.136,538.268,0.0
